{
  "type": "FeatureCollection",
  "features": [
    {
      "type": "Feature",
      "properties": {
        "norad_id": 66663,
        "name": "KSLV-II R/B",
        "group": "last-30-days",
        "lat": -28.285244633771722,
        "lon": 84.97815956984392,
        "alt_km": 601.7207577993313,
        "timestamp": "2025-12-07T18:50:15.515683+00:00",
        "meta_object_name": "KSLV-II R/B",
        "meta_object_id": "2025-274P",
        "meta_epoch": "2025-12-06T19:27:04.446432",
        "meta_mean_motion": 14.97226496,
        "meta_eccentricity": 0.00484111,
        "meta_inclination": 97.7412,
        "meta_ra_of_asc_node": 268.2109,
        "meta_arg_of_pericenter": 339.2416,
        "meta_mean_anomaly": 20.6839,
        "meta_ephemeris_type": 0,
        "meta_classification_type": "U",
        "meta_norad_cat_id": 66663,
        "meta_element_set_no": 999,
        "meta_rev_at_epoch": 152,
        "meta_bstar": 0.00053388811,
        "meta_mean_motion_dot": 6.269e-05,
        "meta_mean_motion_ddot": 0,
        "tle_line1": "1 66663U 25274P   25340.81046813  .00006269  00000+0  53389-3 0  9995",
        "tle_line2": "2 66663  97.7412 268.2109 0048411 339.2416  20.6839 14.97226496  1529"
      },
      "geometry": {
        "type": "Point",
        "coordinates": [
          84.97815956984392,
          -28.285244633771722
        ]
      }
    },
    {
      "type": "Feature",
      "properties": {
        "norad_id": 66664,
        "name": "SOYUZ-MS 28",
        "group": "last-30-days",
        "lat": 51.563531916495705,
        "lon": -99.67415470845442,
        "alt_km": 412.7182669406084,
        "timestamp": "2025-12-07T18:50:15.515693+00:00",
        "meta_object_name": "SOYUZ-MS 28",
        "meta_object_id": "2025-275A",
        "meta_epoch": "2025-12-07T04:30:36.916128",
        "meta_mean_motion": 15.49384117,
        "meta_eccentricity": 0.00034959,
        "meta_inclination": 51.6302,
        "meta_ra_of_asc_node": 169.9669,
        "meta_arg_of_pericenter": 214.2568,
        "meta_mean_anomaly": 145.8196,
        "meta_ephemeris_type": 0,
        "meta_classification_type": "U",
        "meta_norad_cat_id": 66664,
        "meta_element_set_no": 999,
        "meta_rev_at_epoch": 128,
        "meta_bstar": 0.00024795554,
        "meta_mean_motion_dot": 0.00013419,
        "meta_mean_motion_ddot": 0,
        "tle_line1": "1 66664U 25275A   25341.18792727  .00013419  00000+0  24796-3 0  9995",
        "tle_line2": "2 66664  51.6302 169.9669 0003495 214.2568 145.8196 15.49384117  1280"
      },
      "geometry": {
        "type": "Point",
        "coordinates": [
          -99.67415470845442,
          51.563531916495705
        ]
      }
    },
    {
      "type": "Feature",
      "properties": {
        "norad_id": 66820,
        "name": "KOMPSAT-7",
        "group": "last-30-days",
        "lat": -82.30905932703276,
        "lon": 11.419040508325331,
        "alt_km": 573.7131906188442,
        "timestamp": "2025-12-07T18:50:15.515704+00:00",
        "meta_object_name": "KOMPSAT-7",
        "meta_object_id": "2025-279A",
        "meta_epoch": "2025-12-07T04:48:36.659520",
        "meta_mean_motion": 14.9835792,
        "meta_eccentricity": 0.00094556,
        "meta_inclination": 97.6394,
        "meta_ra_of_asc_node": 287.1796,
        "meta_arg_of_pericenter": 241.2978,
        "meta_mean_anomaly": 118.7294,
        "meta_ephemeris_type": 0,
        "meta_classification_type": "U",
        "meta_norad_cat_id": 66820,
        "meta_element_set_no": 999,
        "meta_rev_at_epoch": 82,
        "meta_bstar": 0.00037158486,
        "meta_mean_motion_dot": 4.374e-05,
        "meta_mean_motion_ddot": 0,
        "tle_line1": "1 66820U 25279A   25341.20042430  .00004374  00000+0  37158-3 0  9991",
        "tle_line2": "2 66820  97.6394 287.1796 0009455 241.2978 118.7294 14.98357920   828"
      },
      "geometry": {
        "type": "Point",
        "coordinates": [
          11.419040508325331,
          -82.30905932703276
        ]
      }
    },
    {
      "type": "Feature",
      "properties": {
        "norad_id": 66877,
        "name": "ZQ-3 R/B",
        "group": "last-30-days",
        "lat": -26.948067284551904,
        "lon": 57.13752077241735,
        "alt_km": 957.9827920774514,
        "timestamp": "2025-12-07T18:50:15.515714+00:00",
        "meta_object_name": "ZQ-3 R/B",
        "meta_object_id": "2025-282A",
        "meta_epoch": "2025-12-07T05:43:54.391872",
        "meta_mean_motion": 14.4535451,
        "meta_eccentricity": 0.0837907,
        "meta_inclination": 56.9535,
        "meta_ra_of_asc_node": 78.5144,
        "meta_arg_of_pericenter": 210.5363,
        "meta_mean_anomaly": 144.4233,
        "meta_ephemeris_type": 0,
        "meta_classification_type": "U",
        "meta_norad_cat_id": 66877,
        "meta_element_set_no": 999,
        "meta_rev_at_epoch": 59,
        "meta_bstar": 0.00025793063,
        "meta_mean_motion_dot": 0.01186349,
        "meta_mean_motion_ddot": 7.2576e-06,
        "tle_line1": "1 66877U 25282A   25341.23882398  .01186349  72576-5  25793-3 0  9994",
        "tle_line2": "2 66877  56.9535  78.5144 0837907 210.5363 144.4233 14.45354510   599"
      },
      "geometry": {
        "type": "Point",
        "coordinates": [
          57.13752077241735,
          -26.948067284551904
        ]
      }
    },
    {
      "type": "Feature",
      "properties": {
        "norad_id": 66906,
        "name": "1998-067XS",
        "group": "last-30-days",
        "lat": 49.067520989765946,
        "lon": -79.02789787624236,
        "alt_km": 408.6647182422221,
        "timestamp": "2025-12-07T18:50:15.515726+00:00",
        "meta_object_name": "1998-067XS",
        "meta_object_id": "1998-067XS",
        "meta_epoch": "2025-12-06T23:49:06.838464",
        "meta_mean_motion": 15.5014949,
        "meta_eccentricity": 0.00041336,
        "meta_inclination": 51.6299,
        "meta_ra_of_asc_node": 170.9119,
        "meta_arg_of_pericenter": 177.8938,
        "meta_mean_anomaly": 182.2069,
        "meta_ephemeris_type": 0,
        "meta_classification_type": "U",
        "meta_norad_cat_id": 66906,
        "meta_element_set_no": 999,
        "meta_rev_at_epoch": 72,
        "meta_bstar": 0.00062682756,
        "meta_mean_motion_dot": 0.00035676,
        "meta_mean_motion_ddot": 0,
        "tle_line1": "1 66906U 98067XS  25340.99244026  .00035676  00000+0  62683-3 0  9991",
        "tle_line2": "2 66906  51.6299 170.9119 0004133 177.8938 182.2069 15.50149490   728"
      },
      "geometry": {
        "type": "Point",
        "coordinates": [
          -79.02789787624236,
          49.067520989765946
        ]
      }
    },
    {
      "type": "Feature",
      "properties": {
        "norad_id": 66907,
        "name": "1998-067XT",
        "group": "last-30-days",
        "lat": 47.70348460777724,
        "lon": -73.58143208701577,
        "alt_km": 408.2670603239676,
        "timestamp": "2025-12-07T18:50:15.515737+00:00",
        "meta_object_name": "1998-067XT",
        "meta_object_id": "1998-067XT",
        "meta_epoch": "2025-12-07T05:59:38.363712",
        "meta_mean_motion": 15.50548845,
        "meta_eccentricity": 0.00050774,
        "meta_inclination": 51.6298,
        "meta_ra_of_asc_node": 169.6308,
        "meta_arg_of_pericenter": 196.245,
        "meta_mean_anomaly": 163.8377,
        "meta_ephemeris_type": 0,
        "meta_classification_type": "U",
        "meta_norad_cat_id": 66907,
        "meta_element_set_no": 999,
        "meta_rev_at_epoch": 76,
        "meta_bstar": 0.0013100071,
        "meta_mean_motion_dot": 0.00076543,
        "meta_mean_motion_ddot": 0,
        "tle_line1": "1 66907U 98067XT  25341.24974958  .00076543  00000+0  13100-2 0  9992",
        "tle_line2": "2 66907  51.6298 169.6308 0005077 196.2450 163.8377 15.50548845   763"
      },
      "geometry": {
        "type": "Point",
        "coordinates": [
          -73.58143208701577,
          47.70348460777724
        ]
      }
    },
    {
      "type": "Feature",
      "properties": {
        "norad_id": 66908,
        "name": "1998-067XU",
        "group": "last-30-days",
        "lat": 47.358233346910446,
        "lon": -72.38580370275976,
        "alt_km": 408.11426131784174,
        "timestamp": "2025-12-07T18:50:15.515747+00:00",
        "meta_object_name": "1998-067XU",
        "meta_object_id": "1998-067XU",
        "meta_epoch": "2025-12-07T05:59:26.026656",
        "meta_mean_motion": 15.50595365,
        "meta_eccentricity": 0.00052733,
        "meta_inclination": 51.6295,
        "meta_ra_of_asc_node": 169.6298,
        "meta_arg_of_pericenter": 195.7563,
        "meta_mean_anomaly": 164.3263,
        "meta_ephemeris_type": 0,
        "meta_classification_type": "U",
        "meta_norad_cat_id": 66908,
        "meta_element_set_no": 999,
        "meta_rev_at_epoch": 76,
        "meta_bstar": 0.0011866563,
        "meta_mean_motion_dot": 0.00069346,
        "meta_mean_motion_ddot": 0,
        "tle_line1": "1 66908U 98067XU  25341.24960679  .00069346  00000+0  11867-2 0  9999",
        "tle_line2": "2 66908  51.6295 169.6298 0005273 195.7563 164.3263 15.50595365   765"
      },
      "geometry": {
        "type": "Point",
        "coordinates": [
          -72.38580370275976,
          47.358233346910446
        ]
      }
    }
  ]
}